CCSDS_OMM_VERS = 2.0
CREATION_DATE  = 
ORIGINATOR     = 

OBJECT_NAME    = ATLAS CENTAUR R/B
OBJECT_ID      = 1972-065B
CENTER_NAME    = EARTH
REF_FRAME      = TEME
TIME_SYSTEM    = UTC
MEAN_ELEMENT_THEORY = SGP/SGP4

EPOCH          = 2026-03-11T22:09:24.614784
MEAN_MOTION    = 14.77693404
ECCENTRICITY   = .0033276
INCLINATION    = 35.0013
RA_OF_ASC_NODE = 292.6651
ARG_OF_PERICENTER = 27.7558
MEAN_ANOMALY   = 332.4910

EPHEMERIS_TYPE = 0
CLASSIFICATION_TYPE = U
NORAD_CAT_ID   = 6155
ELEMENT_SET_NO = 999
REV_AT_EPOCH   = 84159
BSTAR          = .19621E-3
MEAN_MOTION_DOT = .1417E-4
MEAN_MOTION_DDOT = 0

CCSDS_OMM_VERS = 2.0
CREATION_DATE  = 
ORIGINATOR     = 

OBJECT_NAME    = SL-8 R/B
OBJECT_ID      = 1975-112B
CENTER_NAME    = EARTH
REF_FRAME      = TEME
TIME_SYSTEM    = UTC
MEAN_ELEMENT_THEORY = SGP/SGP4

EPOCH          = 2026-03-12T03:30:43.421760
MEAN_MOTION    = 14.38205373
ECCENTRICITY   = .0014421
INCLINATION    = 74.0632
RA_OF_ASC_NODE = 14.3929
ARG_OF_PERICENTER = 106.6047
MEAN_ANOMALY   = 253.6692

EPHEMERIS_TYPE = 0
CLASSIFICATION_TYPE = U
NORAD_CAT_ID   = 8459
ELEMENT_SET_NO = 999
REV_AT_EPOCH   = 63222
BSTAR          = .1109E-3
MEAN_MOTION_DOT = .311E-5
MEAN_MOTION_DDOT = 0

CCSDS_OMM_VERS = 2.0
CREATION_DATE  = 
ORIGINATOR     = 

OBJECT_NAME    = SL-3 R/B
OBJECT_ID      = 1977-057B
CENTER_NAME    = EARTH
REF_FRAME      = TEME
TIME_SYSTEM    = UTC
MEAN_ELEMENT_THEORY = SGP/SGP4

EPOCH          = 2026-03-12T04:18:10.422720
MEAN_MOTION    = 15.45572542
ECCENTRICITY   = .0006175
INCLINATION    = 97.5780
RA_OF_ASC_NODE = 243.2095
ARG_OF_PERICENTER = 274.6123
MEAN_ANOMALY   = 85.4420

EPHEMERIS_TYPE = 0
CLASSIFICATION_TYPE = U
NORAD_CAT_ID   = 10114
ELEMENT_SET_NO = 999
REV_AT_EPOCH   = 66871
BSTAR          = .31061E-3
MEAN_MOTION_DOT = .14857E-3
MEAN_MOTION_DDOT = 0

CCSDS_OMM_VERS = 2.0
CREATION_DATE  = 
ORIGINATOR     = 

OBJECT_NAME    = SEASAT 1
OBJECT_ID      = 1978-064A
CENTER_NAME    = EARTH
REF_FRAME      = TEME
TIME_SYSTEM    = UTC
MEAN_ELEMENT_THEORY = SGP/SGP4

EPOCH          = 2026-03-12T02:59:30.490080
MEAN_MOTION    = 14.46162302
ECCENTRICITY   = .0002363
INCLINATION    = 108.0105
RA_OF_ASC_NODE = 130.6094
ARG_OF_PERICENTER = 285.2592
MEAN_ANOMALY   = 74.8292

EPHEMERIS_TYPE = 0
CLASSIFICATION_TYPE = U
NORAD_CAT_ID   = 10967
ELEMENT_SET_NO = 999
REV_AT_EPOCH   = 50686
BSTAR          = .10995E-3
MEAN_MOTION_DOT = .256E-5
MEAN_MOTION_DDOT = 0

CCSDS_OMM_VERS = 2.0
CREATION_DATE  = 
ORIGINATOR     = 

OBJECT_NAME    = SL-14 R/B
OBJECT_ID      = 1979-011B
CENTER_NAME    = EARTH
REF_FRAME      = TEME
TIME_SYSTEM    = UTC
MEAN_ELEMENT_THEORY = SGP/SGP4

EPOCH          = 2026-03-12T03:05:57.687360
MEAN_MOTION    = 14.91911164
ECCENTRICITY   = .001729
INCLINATION    = 82.5206
RA_OF_ASC_NODE = 94.2555
ARG_OF_PERICENTER = 53.0344
MEAN_ANOMALY   = 307.2456

EPHEMERIS_TYPE = 0
CLASSIFICATION_TYPE = U
NORAD_CAT_ID   = 11267
ELEMENT_SET_NO = 999
REV_AT_EPOCH   = 52914
BSTAR          = .57271E-4
MEAN_MOTION_DOT = .606E-5
MEAN_MOTION_DDOT = 0

CCSDS_OMM_VERS = 2.0
CREATION_DATE  = 
ORIGINATOR     = 

OBJECT_NAME    = SL-8 R/B
OBJECT_ID      = 1979-089B
CENTER_NAME    = EARTH
REF_FRAME      = TEME
TIME_SYSTEM    = UTC
MEAN_ELEMENT_THEORY = SGP/SGP4

EPOCH          = 2026-03-12T04:09:14.498208
MEAN_MOTION    = 14.42352485
ECCENTRICITY   = .0017128
INCLINATION    = 74.0666
RA_OF_ASC_NODE = 86.4458
ARG_OF_PERICENTER = 258.8609
MEAN_ANOMALY   = 101.0622

EPHEMERIS_TYPE = 0
CLASSIFICATION_TYPE = U
NORAD_CAT_ID   = 11574
ELEMENT_SET_NO = 999
REV_AT_EPOCH   = 43646
BSTAR          = .1064E-3
MEAN_MOTION_DOT = .326E-5
MEAN_MOTION_DDOT = 0

CCSDS_OMM_VERS = 2.0
CREATION_DATE  = 
ORIGINATOR     = 

OBJECT_NAME    = SL-14 R/B
OBJECT_ID      = 1980-005B
CENTER_NAME    = EARTH
REF_FRAME      = TEME
TIME_SYSTEM    = UTC
MEAN_ELEMENT_THEORY = SGP/SGP4

EPOCH          = 2026-03-12T03:27:01.602720
MEAN_MOTION    = 14.90933590
ECCENTRICITY   = .0016379
INCLINATION    = 82.5140
RA_OF_ASC_NODE = 304.9085
ARG_OF_PERICENTER = 150.4007
MEAN_ANOMALY   = 209.8143

EPHEMERIS_TYPE = 0
CLASSIFICATION_TYPE = U
NORAD_CAT_ID   = 11672
ELEMENT_SET_NO = 999
REV_AT_EPOCH   = 47685
BSTAR          = .64462E-4
MEAN_MOTION_DOT = .663E-5
MEAN_MOTION_DDOT = 0

CCSDS_OMM_VERS = 2.0
CREATION_DATE  = 
ORIGINATOR     = 

OBJECT_NAME    = SL-8 R/B
OBJECT_ID      = 1981-003B
CENTER_NAME    = EARTH
REF_FRAME      = TEME
TIME_SYSTEM    = UTC
MEAN_ELEMENT_THEORY = SGP/SGP4

EPOCH          = 2026-03-12T01:17:21.349248
MEAN_MOTION    = 15.11073422
ECCENTRICITY   = .0261904
INCLINATION    = 82.9385
RA_OF_ASC_NODE = 287.8378
ARG_OF_PERICENTER = 170.4101
MEAN_ANOMALY   = 190.2279

EPHEMERIS_TYPE = 0
CLASSIFICATION_TYPE = U
NORAD_CAT_ID   = 12139
ELEMENT_SET_NO = 999
REV_AT_EPOCH   = 31503
BSTAR          = .48626E-3
MEAN_MOTION_DOT = .19005E-3
MEAN_MOTION_DDOT = 0

CCSDS_OMM_VERS = 2.0
CREATION_DATE  = 
ORIGINATOR     = 

OBJECT_NAME    = SL-3 R/B
OBJECT_ID      = 1981-046B
CENTER_NAME    = EARTH
REF_FRAME      = TEME
TIME_SYSTEM    = UTC
MEAN_ELEMENT_THEORY = SGP/SGP4

EPOCH          = 2026-03-12T02:53:31.715808
MEAN_MOTION    = 15.42064405
ECCENTRICITY   = .0019368
INCLINATION    = 81.2298
RA_OF_ASC_NODE = 286.8250
ARG_OF_PERICENTER = 13.9738
MEAN_ANOMALY   = 346.2036

EPHEMERIS_TYPE = 0
CLASSIFICATION_TYPE = U
NORAD_CAT_ID   = 12465
ELEMENT_SET_NO = 999
REV_AT_EPOCH   = 43880
BSTAR          = .28832E-3
MEAN_MOTION_DOT = .12432E-3
MEAN_MOTION_DDOT = 0

CCSDS_OMM_VERS = 2.0
CREATION_DATE  = 
ORIGINATOR     = 

OBJECT_NAME    = SL-3 R/B
OBJECT_ID      = 1981-103B
CENTER_NAME    = EARTH
REF_FRAME      = TEME
TIME_SYSTEM    = UTC
MEAN_ELEMENT_THEORY = SGP/SGP4

EPOCH          = 2026-03-12T03:21:36.162432
MEAN_MOTION    = 15.21409619
ECCENTRICITY   = .0012319
INCLINATION    = 81.1586
RA_OF_ASC_NODE = 210.5576
ARG_OF_PERICENTER = 278.0209
MEAN_ANOMALY   = 81.9625

EPHEMERIS_TYPE = 0
CLASSIFICATION_TYPE = U
NORAD_CAT_ID   = 12904
ELEMENT_SET_NO = 999
REV_AT_EPOCH   = 97360
BSTAR          = .30346E-3
MEAN_MOTION_DOT = .6847E-4
MEAN_MOTION_DDOT = 0

CCSDS_OMM_VERS = 2.0
CREATION_DATE  = 
ORIGINATOR     = 

OBJECT_NAME    = SL-3 R/B
OBJECT_ID      = 1982-013B
CENTER_NAME    = EARTH
REF_FRAME      = TEME
TIME_SYSTEM    = UTC
MEAN_ELEMENT_THEORY = SGP/SGP4

EPOCH          = 2026-03-12T03:31:45.183936
MEAN_MOTION    = 15.22044811
ECCENTRICITY   = .0022726
INCLINATION    = 81.1759
RA_OF_ASC_NODE = 157.8910
ARG_OF_PERICENTER = 169.2385
MEAN_ANOMALY   = 190.9338

EPHEMERIS_TYPE = 0
CLASSIFICATION_TYPE = U
NORAD_CAT_ID   = 13068
ELEMENT_SET_NO = 999
REV_AT_EPOCH   = 40472
BSTAR          = .20377E-3
MEAN_MOTION_DOT = .4716E-4
MEAN_MOTION_DDOT = 0

CCSDS_OMM_VERS = 2.0
CREATION_DATE  = 
ORIGINATOR     = 

OBJECT_NAME    = SL-3 R/B
OBJECT_ID      = 1982-039B
CENTER_NAME    = EARTH
REF_FRAME      = TEME
TIME_SYSTEM    = UTC
MEAN_ELEMENT_THEORY = SGP/SGP4

EPOCH          = 2026-03-12T04:11:38.143392
MEAN_MOTION    = 15.10098156
ECCENTRICITY   = .0029619
INCLINATION    = 81.1579
RA_OF_ASC_NODE = 213.0969
ARG_OF_PERICENTER = 316.3781
MEAN_ANOMALY   = 43.5103

EPHEMERIS_TYPE = 0
CLASSIFICATION_TYPE = U
NORAD_CAT_ID   = 13154
ELEMENT_SET_NO = 999
REV_AT_EPOCH   = 38201
BSTAR          = .19216E-3
MEAN_MOTION_DOT = .3184E-4
MEAN_MOTION_DDOT = 0

