ATLAS CENTAUR R/B       
1 06155U 72065B   26070.92320156  .00001417  00000+0  19621-3 0  9994
2 06155  35.0013 292.6651 0033276  27.7558 332.4910 14.77693404841591
SL-8 R/B                
1 08459U 75112B   26071.14633590  .00000311  00000+0  11090-3 0  9997
2 08459  74.0632  14.3929 0014421 106.6047 253.6692 14.38205373632228
SL-3 R/B                
1 10114U 77057B   26071.17928730  .00014857  00000+0  31061-3 0  9994
2 10114  97.5780 243.2095 0006175 274.6123  85.4420 15.45572542668715
SEASAT 1                
1 10967U 78064A   26071.12465845  .00000256  00000+0  10995-3 0  9998
2 10967 108.0105 130.6094 0002363 285.2592  74.8292 14.46162302506866
SL-14 R/B               
1 11267U 79011B   26071.12913990  .00000606  00000+0  57271-4 0  9992
2 11267  82.5206  94.2555 0017290  53.0344 307.2456 14.91911164529145
SL-8 R/B                
1 11574U 79089B   26071.17308447  .00000326  00000+0  10640-3 0  9995
2 11574  74.0666  86.4458 0017128 258.8609 101.0622 14.42352485436464
SL-14 R/B               
1 11672U 80005B   26071.14376855  .00000663  00000+0  64462-4 0  9995
2 11672  82.5140 304.9085 0016379 150.4007 209.8143 14.90933590476851
SL-8 R/B                
1 12139U 81003B   26071.05371932  .00019005  00000+0  48626-3 0  9997
2 12139  82.9385 287.8378 0261904 170.4101 190.2279 15.11073422315030
SL-3 R/B                
1 12465U 81046B   26071.12050597  .00012432  00000+0  28832-3 0  9999
2 12465  81.2298 286.8250 0019368  13.9738 346.2036 15.42064405438807
SL-3 R/B                
1 12904U 81103B   26071.14000188  .00006847  00000+0  30346-3 0  9990
2 12904  81.1586 210.5576 0012319 278.0209  81.9625 15.21409619973601
SL-3 R/B                
1 13068U 82013B   26071.14705074  .00004716  00000+0  20377-3 0  9995
2 13068  81.1759 157.8910 0022726 169.2385 190.9338 15.22044811404723
SL-3 R/B                
1 13154U 82039B   26071.17474703  .00003184  00000+0  19216-3 0  9992
2 13154  81.1579 213.0969 0029619 316.3781  43.5103 15.10098156382019
